{
  "type": "FeatureCollection",
  "features": [
    {
      "type": "Feature",
      "properties": {
        "norad_id": 2807,
        "name": "OPS 7218 (TRANSIT 16)",
        "group": "nnss",
        "lat": -75.74316370319043,
        "lon": -7.760613827178573,
        "alt_km": 1091.339925348865,
        "timestamp": "2025-12-27T12:55:14.773688+00:00",
        "meta_object_name": "OPS 7218 (TRANSIT 16)",
        "meta_object_id": "1967-048A",
        "meta_epoch": "2025-12-27T06:14:25.688256",
        "meta_mean_motion": 13.50725258,
        "meta_eccentricity": 0.00221178,
        "meta_inclination": 89.6735,
        "meta_ra_of_asc_node": 353.5344,
        "meta_arg_of_pericenter": 75.4667,
        "meta_mean_anomaly": 296.2606,
        "meta_ephemeris_type": 0,
        "meta_classification_type": "U",
        "meta_norad_cat_id": 2807,
        "meta_element_set_no": 999,
        "meta_rev_at_epoch": 88472,
        "meta_bstar": 0.00016857988,
        "meta_mean_motion_dot": 1.19e-06,
        "meta_mean_motion_ddot": 0,
        "tle_line1": "1 02807U 67048A   25361.26001954  .00000119  00000+0  16858-3 0  9997",
        "tle_line2": "2 02807  89.6735 353.5344 0022117  75.4667 296.2606 13.50725258884720"
      },
      "geometry": {
        "type": "Point",
        "coordinates": [
          -7.760613827178573,
          -75.74316370319043
        ]
      }
    },
    {
      "type": "Feature",
      "properties": {
        "norad_id": 2965,
        "name": "OPS 4947 (TRANSIT 17)",
        "group": "nnss",
        "lat": 46.118911020137865,
        "lon": -157.47577292967676,
        "alt_km": 1036.2950548914014,
        "timestamp": "2025-12-27T12:55:14.773711+00:00",
        "meta_object_name": "OPS 4947 (TRANSIT 17)",
        "meta_object_id": "1967-092A",
        "meta_epoch": "2025-12-27T01:44:28.419360",
        "meta_mean_motion": 13.53457396,
        "meta_eccentricity": 0.00472819,
        "meta_inclination": 89.2485,
        "meta_ra_of_asc_node": 23.3417,
        "meta_arg_of_pericenter": 192.1031,
        "meta_mean_anomaly": 193.8499,
        "meta_ephemeris_type": 0,
        "meta_classification_type": "U",
        "meta_norad_cat_id": 2965,
        "meta_element_set_no": 999,
        "meta_rev_at_epoch": 87291,
        "meta_bstar": 0.00019935644,
        "meta_mean_motion_dot": 1.46e-06,
        "meta_mean_motion_ddot": 0,
        "tle_line1": "1 02965U 67092A   25361.07255115  .00000146  00000+0  19936-3 0  9990",
        "tle_line2": "2 02965  89.2485  23.3417 0047281 192.1031 193.8499 13.53457396872915"
      },
      "geometry": {
        "type": "Point",
        "coordinates": [
          -157.47577292967676,
          46.118911020137865
        ]
      }
    },
    {
      "type": "Feature",
      "properties": {
        "norad_id": 3133,
        "name": "OPS 7034 (TRANSIT 18)",
        "group": "nnss",
        "lat": -3.791374572147783,
        "lon": 93.67939143075381,
        "alt_km": 1039.1617647506773,
        "timestamp": "2025-12-27T12:55:14.773725+00:00",
        "meta_object_name": "OPS 7034 (TRANSIT 18)",
        "meta_object_id": "1968-012A",
        "meta_epoch": "2025-12-27T07:16:51.956832",
        "meta_mean_motion": 13.51569235,
        "meta_eccentricity": 0.0075134,
        "meta_inclination": 90.0284,
        "meta_ra_of_asc_node": 273.6806,
        "meta_arg_of_pericenter": 127.3584,
        "meta_mean_anomaly": 352.9174,
        "meta_ephemeris_type": 0,
        "meta_classification_type": "U",
        "meta_norad_cat_id": 3133,
        "meta_element_set_no": 999,
        "meta_rev_at_epoch": 57115,
        "meta_bstar": 0.00020808153,
        "meta_mean_motion_dot": 1.48e-06,
        "meta_mean_motion_ddot": 0,
        "tle_line1": "1 03133U 68012A   25361.30337913  .00000148  00000+0  20808-3 0  9996",
        "tle_line2": "2 03133  90.0284 273.6806 0075134 127.3584 352.9174 13.51569235571157"
      },
      "geometry": {
        "type": "Point",
        "coordinates": [
          93.67939143075381,
          -3.791374572147783
        ]
      }
    },
    {
      "type": "Feature",
      "properties": {
        "norad_id": 4507,
        "name": "NNSS 19 (TRANSIT 19)",
        "group": "nnss",
        "lat": 40.69164530857956,
        "lon": 54.547553549883055,
        "alt_km": 1107.4410930478834,
        "timestamp": "2025-12-27T12:55:14.773738+00:00",
        "meta_object_name": "NNSS 19 (TRANSIT 19)",
        "meta_object_id": "1970-067A",
        "meta_epoch": "2025-12-27T03:19:49.282176",
        "meta_mean_motion": 13.51318074,
        "meta_eccentricity": 0.01702391,
        "meta_inclination": 90.0045,
        "meta_ra_of_asc_node": 234.5435,
        "meta_arg_of_pericenter": 251.2246,
        "meta_mean_anomaly": 107.037,
        "meta_ephemeris_type": 0,
        "meta_classification_type": "U",
        "meta_norad_cat_id": 4507,
        "meta_element_set_no": 999,
        "meta_rev_at_epoch": 72416,
        "meta_bstar": 0.00013052055,
        "meta_mean_motion_dot": 1.01e-06,
        "meta_mean_motion_ddot": 0,
        "tle_line1": "1 04507U 70067A   25361.13876484  .00000101  00000+0  13052-3 0  9999",
        "tle_line2": "2 04507  90.0045 234.5435 0170239 251.2246 107.0370 13.51318074724167"
      },
      "geometry": {
        "type": "Point",
        "coordinates": [
          54.547553549883055,
          40.69164530857956
        ]
      }
    },
    {
      "type": "Feature",
      "properties": {
        "norad_id": 6909,
        "name": "NNSS 20 (TRANSIT 20)",
        "group": "nnss",
        "lat": -24.61184670427974,
        "lon": 74.89857338941209,
        "alt_km": 1113.2308762937791,
        "timestamp": "2025-12-27T12:55:14.773749+00:00",
        "meta_object_name": "NNSS 20 (TRANSIT 20)",
        "meta_object_id": "1973-081A",
        "meta_epoch": "2025-12-27T06:40:47.864928",
        "meta_mean_motion": 13.71442091,
        "meta_eccentricity": 0.01559845,
        "meta_inclination": 89.8558,
        "meta_ra_of_asc_node": 254.8364,
        "meta_arg_of_pericenter": 35.2081,
        "meta_mean_anomaly": 325.9268,
        "meta_ephemeris_type": 0,
        "meta_classification_type": "U",
        "meta_norad_cat_id": 6909,
        "meta_element_set_no": 999,
        "meta_rev_at_epoch": 80560,
        "meta_bstar": 0.00028554153,
        "meta_mean_motion_dot": 2.91e-06,
        "meta_mean_motion_ddot": 0,
        "tle_line1": "1 06909U 73081A   25361.27833177  .00000291  00000+0  28554-3 0  9996",
        "tle_line2": "2 06909  89.8558 254.8364 0155984  35.2081 325.9268 13.71442091805608"
      },
      "geometry": {
        "type": "Point",
        "coordinates": [
          74.89857338941209,
          -24.61184670427974
        ]
      }
    },
    {
      "type": "Feature",
      "properties": {
        "norad_id": 10457,
        "name": "TRANSAT",
        "group": "nnss",
        "lat": 19.54349130017332,
        "lon": 78.19788864260966,
        "alt_km": 1088.481691437958,
        "timestamp": "2025-12-27T12:55:14.773760+00:00",
        "meta_object_name": "TRANSAT",
        "meta_object_id": "1977-106A",
        "meta_epoch": "2025-12-27T04:12:20.051712",
        "meta_mean_motion": 13.48945884,
        "meta_eccentricity": 0.00266749,
        "meta_inclination": 89.6473,
        "meta_ra_of_asc_node": 78.0855,
        "meta_arg_of_pericenter": 148.7401,
        "meta_mean_anomaly": 268.7469,
        "meta_ephemeris_type": 0,
        "meta_classification_type": "U",
        "meta_norad_cat_id": 10457,
        "meta_element_set_no": 999,
        "meta_rev_at_epoch": 36938,
        "meta_bstar": 0.00012462096,
        "meta_mean_motion_dot": 8.9e-07,
        "meta_mean_motion_ddot": 0,
        "tle_line1": "1 10457U 77106A   25361.17523208  .00000089  00000+0  12462-3 0  9997",
        "tle_line2": "2 10457  89.6473  78.0855 0026674 148.7401 268.7469 13.48945884369384"
      },
      "geometry": {
        "type": "Point",
        "coordinates": [
          78.19788864260966,
          19.54349130017332
        ]
      }
    },
    {
      "type": "Feature",
      "properties": {
        "norad_id": 12458,
        "name": "NOVA 1",
        "group": "nnss",
        "lat": -4.327256646625292,
        "lon": 91.16471829129425,
        "alt_km": 1171.958305362209,
        "timestamp": "2025-12-27T12:55:14.773771+00:00",
        "meta_object_name": "NOVA 1",
        "meta_object_id": "1981-044A",
        "meta_epoch": "2025-12-27T07:49:23.643840",
        "meta_mean_motion": 13.23280201,
        "meta_eccentricity": 0.00156415,
        "meta_inclination": 89.8525,
        "meta_ra_of_asc_node": 91.1789,
        "meta_arg_of_pericenter": 68.0967,
        "meta_mean_anomaly": 356.6259,
        "meta_ephemeris_type": 0,
        "meta_classification_type": "U",
        "meta_norad_cat_id": 12458,
        "meta_element_set_no": 999,
        "meta_rev_at_epoch": 15379,
        "meta_bstar": 0.00012527401,
        "meta_mean_motion_dot": 6.2e-07,
        "meta_mean_motion_ddot": 0,
        "tle_line1": "1 12458U 81044A   25361.32596810  .00000062  00000+0  12527-3 0  9995",
        "tle_line2": "2 12458  89.8525  91.1789 0015641  68.0967 356.6259 13.23280201153790"
      },
      "geometry": {
        "type": "Point",
        "coordinates": [
          91.16471829129425,
          -4.327256646625292
        ]
      }
    }
  ]
}